H1 CPF  1  DGF 2022 04 20 11  6101 larets     NONE      
H2   304206 5557    27944 2022 04 20 00 00 00 2022 04 27 00 00 00    30 1 1  0 0 0
H5  0.0650
H9
10 0 59690   7200.000000  0        552659.319       -991830.881       6951964.094
10 0 59690   7230.000000  0        325215.000       -999083.765       6965161.674
10 0 59690   7260.000000  0         97412.937      -1004325.336       6971228.489
10 0 59690   7290.000000  0       -130506.557      -1007549.199       6970158.165
10 0 59690   7320.000000  0       -358303.017      -1008752.060       6961951.611
10 0 59690   7350.000000  0       -585736.085      -1007933.732       6946617.015
10 0 59690   7380.000000  0       -812565.763      -1005097.128       6924169.843
10 0 59690   7410.000000  0      -1038552.671      -1000248.263       6894632.814
10 0 59690   7440.000000  0      -1263458.298       -993396.237       6858035.888
10 0 59690   7470.000000  0      -1487045.253       -984553.229       6814416.230
10 0 59690   7500.000000  0      -1709077.524       -973734.472       6763818.177
10 0 59690   7530.000000  0      -1929320.722       -960958.238       6706293.198
10 0 59690   7560.000000  0      -2147542.333       -946245.808       6641899.842
10 0 59690   7590.000000  0      -2363511.965       -929621.446       6570703.686
10 0 59690   7620.000000  0      -2577001.598       -911112.360       6492777.274
10 0 59690   7650.000000  0      -2787785.827       -890748.665       6408200.048
10 0 59690   7680.000000  0      -2995642.112       -868563.343       6317058.271
10 0 59690   7710.000000  0      -3200351.012       -844592.196       6219444.941
10 0 59690   7740.000000  0      -3401696.429       -818873.797       6115459.700
10 0 59690   7770.000000  0      -3599465.836       -791449.437       6005208.736
10 0 59690   7800.000000  0      -3793450.513       -762363.067       5888804.680
10 0 59690   7830.000000  0      -3983445.774       -731661.238       5766366.496
10 0 59690   7860.000000  0      -4169251.191       -699393.036       5638019.356
10 0 59690   7890.000000  0      -4350670.817       -665610.010       5503894.520
10 0 59690   7920.000000  0      -4527513.395       -630366.104       5364129.198
10 0 59690   7950.000000  0      -4699592.570       -593717.577       5218866.411
10 0 59690   7980.000000  0      -4866727.091       -555722.929       5068254.848
10 0 59690   8010.000000  0      -5028741.010       -516442.814       4912448.717
10 0 59690   8040.000000  0      -5185463.884       -475939.959       4751607.586
10 0 59690   8070.000000  0      -5336730.956       -434279.074       4585896.214
10 0 59690   8100.000000  0      -5482383.336       -391526.758       4415484.387
10 0 59690   8130.000000  0      -5622268.177       -347751.407       4240546.736
10 0 59690   8160.000000  0      -5756238.838       -303023.116       4061262.564
10 0 59690   8190.000000  0      -5884155.051       -257413.582       3877815.659
10 0 59690   8220.000000  0      -6005883.072       -210995.998       3690394.109
10 0 59690   8250.000000  0      -6121295.835       -163844.951       3499190.102
10 0 59690   8280.000000  0      -6230273.090       -116036.318       3304399.727
10 0 59690   8310.000000  0      -6332701.538        -67647.148       3106222.773
10 0 59690   8340.000000  0      -6428474.958        -18755.560       2904862.513
10 0 59690   8370.000000  0      -6517494.323         30559.376       2700525.491
10 0 59690   8400.000000  0      -6599667.908         80217.749       2493421.306
10 0 59690   8430.000000  0      -6674911.387        130138.927       2283762.390
10 0 59690   8460.000000  0      -6743147.932        180241.663       2071763.782
10 0 59690   8490.000000  0      -6804308.290        230444.223       1857642.903
10 0 59690   8520.000000  0      -6858330.858        280664.497       1641619.319
10 0 59690   8550.000000  0      -6905161.751        330820.121       1423914.514
10 0 59690   8580.000000  0      -6944754.852        380828.593       1204751.651
10 0 59690   8610.000000  0      -6977071.864        430607.399        984355.338
10 0 59690   8640.000000  0      -7002082.342        480074.126        762951.382
10 0 59690   8670.000000  0      -7019763.724        529146.586        540766.558
10 0 59690   8700.000000  0      -7030101.347        577742.934        318028.359
10 0 59690   8730.000000  0      -7033088.454        625781.789         94964.761
10 0 59690   8760.000000  0      -7028726.195        673182.352       -128196.024
10 0 59690   8790.000000  0      -7017023.615        719864.521       -351225.786
10 0 59690   8820.000000  0      -6997997.632        765749.014       -573896.560
10 0 59690   8850.000000  0      -6971673.008        810757.476       -795980.863
10 0 59690   8880.000000  0      -6938082.311        854812.599      -1017251.936
10 0 59690   8910.000000  0      -6897265.866        897838.231      -1237483.976
10 0 59690   8940.000000  0      -6849271.701        939759.488      -1456452.371
10 0 59690   8970.000000  0      -6794155.486        980502.862      -1673933.932
10 0 59690   9000.000000  0      -6731980.466       1019996.334      -1889707.125
10 0 59690   9030.000000  0      -6662817.378       1058169.474      -2103552.310
10 0 59690   9060.000000  0      -6586744.363       1094953.551      -2315251.964
10 0 59690   9090.000000  0      -6503846.863       1130281.631      -2524590.913
10 0 59690   9120.000000  0      -6414217.512       1164088.681      -2731356.553
10 0 59690   9150.000000  0      -6317956.016       1196311.654      -2935339.068
10 0 59690   9180.000000  0      -6215169.029       1226889.590      -3136331.636
10 0 59690   9210.000000  0      -6105970.023       1255763.699      -3334130.639
10 0 59690   9240.000000  0      -5990479.152       1282877.449      -3528535.869
10 0 59690   9270.000000  0      -5868823.104       1308176.655      -3719350.725
10 0 59690   9300.000000  0      -5741134.955       1331609.552      -3906382.410
10 0 59690   9330.000000  0      -5607554.007       1353126.879      -4089442.116
10 0 59690   9360.000000  0      -5468225.625       1372681.947      -4268345.216
10 0 59690   9390.000000  0      -5323301.071       1390230.710      -4442911.439
10 0 59690   9420.000000  0      -5172937.323       1405731.837      -4612965.049
10 0 59690   9450.000000  0      -5017296.899       1419146.765      -4778335.007
10 0 59690   9480.000000  0      -4856547.666       1430439.767      -4938855.140
10 0 59690   9510.000000  0      -4690862.654       1439578.003      -5094364.295
10 0 59690   9540.000000  0      -4520419.861       1446531.571      -5244706.487
10 0 59690   9570.000000  0      -4345402.055       1451273.559      -5389731.051
10 0 59690   9600.000000  0      -4165996.570       1453780.083      -5529292.777
10 0 59690   9630.000000  0      -3982395.104       1454030.332      -5663252.048
10 0 59690   9660.000000  0      -3794793.507       1452006.603      -5791474.970
10 0 59690   9690.000000  0      -3603391.564       1447694.328      -5913833.491
10 0 59690   9720.000000  0      -3408392.787       1441082.105      -6030205.520
10 0 59690   9750.000000  0      -3210004.188       1432161.721      -6140475.032
10 0 59690   9780.000000  0      -3008436.066       1420928.172      -6244532.179
10 0 59690   9810.000000  0      -2803901.781       1407379.678      -6342273.384
10 0 59690   9840.000000  0      -2596617.524       1391517.705      -6433601.440
10 0 59690   9870.000000  0      -2386802.088       1373346.962      -6518425.589
10 0 59690   9900.000000  0      -2174676.638       1352875.413      -6596661.597
10 0 59690   9930.000000  0      -1960464.482       1330114.274      -6668231.830
10 0 59690   9960.000000  0      -1744390.844       1305078.009      -6733065.319
10 0 59690   9990.000000  0      -1526682.628       1277784.320      -6791097.818
10 0 59690  10020.000000  0      -1307568.189       1248254.138      -6842271.867
10 0 59690  10050.000000  0      -1087277.096       1216511.606      -6886536.832
10 0 59690  10080.000000  0       -866039.899       1182584.061      -6923848.952
10 0 59690  10110.000000  0       -644087.895       1146502.008      -6954171.371
10 0 59690  10140.000000  0       -421652.900       1108299.099      -6977474.171
10 0 59690  10170.000000  0       -198967.014       1068012.098      -6993734.399
10 0 59690  10200.000000  0         23737.610       1025680.848      -7002936.090
10 0 59690  10230.000000  0        246229.005        981348.233      -7005070.285
10 0 59690  10260.000000  0        468275.621        935060.134      -7000135.040
10 0 59690  10290.000000  0        689646.568        886865.385      -6988135.431
10 0 59690  10320.000000  0        910111.849        836815.719      -6969083.543
10 0 59690  10350.000000  0       1129442.592        784965.718      -6942998.455
10 0 59690  10380.000000  0       1347411.277        731372.754      -6909906.225
10 0 59690  10410.000000  0       1563791.967        676096.927      -6869839.864
10 0 59690  10440.000000  0       1778360.530        619200.999      -6822839.311
10 0 59690  10470.000000  0       1990894.868        560750.330      -6768951.394
10 0 59690  10500.000000  0       2201175.144        500812.805      -6708229.794
10 0 59690  10530.000000  0       2408984.001        439458.761      -6640734.997
10 0 59690  10560.000000  0       2614106.788        376760.910      -6566534.237
10 0 59690  10590.000000  0       2816331.777        312794.254      -6485701.437
10 0 59690  10620.000000  0       3015450.374        247636.005      -6398317.140
10 0 59690  10650.000000  0       3211257.330        181365.489      -6304468.439
10 0 59690  10680.000000  0       3403550.949        114064.059      -6204248.901
10 0 59690  10710.000000  0       3592133.298         45815.001      -6097758.483
10 0 59690  10740.000000  0       3776810.407        -23296.564      -5985103.440
10 0 59690  10770.000000  0       3957392.465        -93183.779      -5866396.235
99
